      2.10          N: GNSS NAV DATA                        RINEX VERSION / TYPE
fic2rin                                 01/22/2023 00:17:34 PGM / RUN BY / DATE
                                                            END OF HEADER
10 23  1 21  6  0  0.0 -.212821178138D-04 -.159161572810D-11  .000000000000D+00
     .330000000000D+02 -.170093750000D+03  .409159900295D-08  .162434634507D+01
    -.879727303982D-05  .843111297581D-02  .681914389133D-05  .515369309425D+04
     .540000000000D+06 -.173225998878D-06 -.609118657540D+00  .111758708954D-06
     .977108053707D+00  .260781250000D+03 -.245756896235D+01 -.801604818630D-08
    -.326085011321D-09  .100000000000D+01  .224500000000D+04  .000000000000D+00
     .240000000000D+01  .000000000000D+00  .232830643654D-08  .330000000000D+02
     .532800000000D+06  .400000000000D+01
29 23  1 21  6  0  0.0 -.581633765250D-03 -.227373675443D-11  .000000000000D+00
     .590000000000D+02  .159656250000D+03  .383551690753D-08 -.361439010768D+00
     .820867717266D-05  .213387317490D-02  .826269388199D-05  .515360035133D+04
     .540000000000D+06 -.745058059692D-08 -.262607174492D+01 -.558793544769D-08
     .978438617199D+00  .228593750000D+03  .241880961055D+01 -.777496671571D-08
     .175721605224D-09  .100000000000D+01  .224500000000D+04  .000000000000D+00
     .240000000000D+01  .000000000000D+00 -.102445483208D-07  .590000000000D+02
     .532800000000D+06  .400000000000D+01
32 23  1 21  6  0  0.0 -.370842404664D-03 -.122781784739D-10  .000000000000D+00
     .660000000000D+02 -.347187500000D+02  .436196740774D-08  .348441343512D+00
    -.176951289177D-05  .650084798690D-02  .118445605040D-04  .515370129204D+04
     .540000000000D+06 -.104308128357D-06  .431304141000D+00  .135973095894D-06
     .959505756706D+00  .152312500000D+03 -.227371370597D+01 -.783032616451D-08
     .585738684082D-09  .100000000000D+01  .224500000000D+04  .000000000000D+00
     .240000000000D+01  .000000000000D+00  .465661287308D-09  .660000000000D+02
     .532800000000D+06  .400000000000D+01
24 23  1 21  6  0  0.0 -.391816720366D-04 -.165982783074D-10  .000000000000D+00
     .570000000000D+02  .161562500000D+02  .553773066871D-08 -.230763597912D+01
     .789761543274D-06  .136856893077D-01  .490993261337D-05  .515365161896D+04
     .540000000000D+06  .169500708580D-06  .140181520513D+01 -.838190317154D-07
     .933561438535D+00  .269125000000D+03  .881225065875D+00 -.829534553444D-08
     .395016454021D-09  .100000000000D+01  .224500000000D+04  .000000000000D+00
     .240000000000D+01  .000000000000D+00  .232830643654D-08  .570000000000D+02
     .532800000000D+06  .400000000000D+01
16 23  1 21  6  0  0.0 -.523176975548D-03  .125055521494D-11  .000000000000D+00
     .880000000000D+02  .266875000000D+02  .426982071231D-08  .480113159234D+00
     .154785811901D-05  .133307403885D-01  .104606151581D-04  .515377278709D+04
     .540000000000D+06 -.819563865662D-07  .262338232949D+01  .160187482834D-06
     .966460568733D+00  .182093750000D+03  .754230547427D+00 -.781853995929D-08
    -.772532179066D-09  .100000000000D+01  .224500000000D+04  .000000000000D+00
     .240000000000D+01  .000000000000D+00 -.102445483208D-07  .880000000000D+02
     .532800000000D+06  .400000000000D+01
30 23  1 21  6  0  0.0 -.532707665116D-03  .102318153949D-11  .000000000000D+00
     .870000000000D+02  .123750000000D+02  .556451749877D-08  .295861130057D+01
     .581145286560D-06  .604061759077D-02  .506080687046D-05  .515363655472D+04
     .540000000000D+06 -.260770320892D-07  .149839123577D+01 -.819563865662D-07
     .935093719413D+00  .268875000000D+03 -.266389937591D+01 -.830748889740D-08
     .220723479733D-09  .100000000000D+01  .224500000000D+04  .000000000000D+00
     .240000000000D+01  .000000000000D+00  .372529029846D-08  .870000000000D+02
     .532800000000D+06  .400000000000D+01
15 23  1 21  6  0  0.0  .644754618406D-05  .329691829393D-11  .000000000000D+00
     .520000000000D+02 -.548437500000D+02  .485591655413D-08 -.133048951650D+01
    -.273063778877D-05  .147195092868D-01  .116825103760D-04  .515367143631D+04
     .540000000000D+06  .214204192162D-06  .303679935797D+00  .309199094772D-06
     .932066548382D+00  .137000000000D+03  .117464199498D+01 -.804033491222D-08
     .424303388225D-09  .100000000000D+01  .224500000000D+04  .000000000000D+00
     .240000000000D+01  .000000000000D+00 -.107102096081D-07  .520000000000D+02
     .532800000000D+06  .400000000000D+01
27 23  1 21  6  0  0.0  .121868681163D-03 -.932232069317D-11  .000000000000D+00
     .820000000000D+02  .172375000000D+03  .405266880992D-08 -.341524914066D+00
     .903196632862D-05  .111667335732D-01  .854209065437D-05  .515367197609D+04
     .540000000000D+06  .931322574615D-07 -.270462265720D+01  .156462192535D-06
     .969653236761D+00  .222187500000D+03  .689486481891D+00 -.798426114795D-08
     .896465912832D-10  .100000000000D+01  .224500000000D+04  .000000000000D+00
     .240000000000D+01  .000000000000D+00  .186264514923D-08  .820000000000D+02
     .532800000000D+06  .400000000000D+01
21 23  1 21  6  0  0.0  .153580214828D-03  .227373675443D-12  .000000000000D+00
     .540000000000D+02  .498437500000D+02  .495163482689D-08 -.401544484202D+00
     .252015888691D-05  .248075827258D-01 -.745058059692D-06  .515365559387D+04
     .540000000000D+06 -.273808836937D-06 -.173879677548D+01 -.439584255219D-06
     .961126472444D+00  .397250000000D+03 -.833170061952D+00 -.898608859237D-08
     .296440919383D-09  .100000000000D+01  .224500000000D+04  .000000000000D+00
     .240000000000D+01  .000000000000D+00 -.102445483208D-07  .540000000000D+02
     .532800000000D+06  .400000000000D+01
20 23  1 21  6  0  0.0  .455738976598D-03 -.238742359215D-11  .000000000000D+00
     .800000000000D+02 -.162406250000D+03  .486448833975D-08 -.166141758158D+01
    -.829622149467D-05  .456290622242D-02  .328384339809D-05  .515373689270D+04
     .540000000000D+06  .558793544769D-07 -.771544011734D+00 -.800937414169D-07
     .946707196989D+00  .307437500000D+03 -.294230301606D+01 -.840356432790D-08
    -.216080429189D-09  .100000000000D+01  .224500000000D+04  .000000000000D+00
     .240000000000D+01  .000000000000D+00 -.838190317154D-08  .800000000000D+02
     .532800000000D+06  .400000000000D+01
19 23  1 21  6  0  0.0  .266933813691D-03  .511590769747D-11  .000000000000D+00
     .870000000000D+02  .164843750000D+03  .397409410840D-08  .173952279100D+01
     .852346420288D-05  .905357149895D-02  .836700201035D-05  .515360739326D+04
     .540000000000D+06  .128522515297D-06 -.259523779569D+01  .335276126862D-07
     .975218206393D+00  .222531250000D+03  .223072692760D+01 -.769996359153D-08
     .113933317209D-09  .100000000000D+01  .224500000000D+04  .000000000000D+00
     .240000000000D+01  .000000000000D+00 -.153668224812D-07  .870000000000D+02
     .532800000000D+06  .400000000000D+01
17 23  1 21  6  0  0.0  .694781541824D-03  .261479726760D-11  .000000000000D+00
     .800000000000D+02  .164093750000D+03  .399730936112D-08 -.384793396327D+00
     .841543078423D-05  .137573622633D-01  .941008329391D-05  .515370826721D+04
     .540000000000D+06 -.204890966415D-06 -.263985442572D+01  .223517417908D-07
     .976251579540D+00  .210906250000D+03 -.142709186212D+01 -.802176271004D-08
     .232509684962D-09  .100000000000D+01  .224500000000D+04  .000000000000D+00
     .240000000000D+01  .000000000000D+00 -.111758708954D-07  .800000000000D+02
     .532800000000D+06  .400000000000D+01
25 23  1 21  6  0  0.0  .413158442825D-03  .329691829393D-11  .000000000000D+00
     .900000000000D+02  .271875000000D+01  .449304429619D-08  .223170987835D+01
     .260770320892D-07  .111369541846D-01  .994652509689D-05  .515355951118D+04
     .540000000000D+06 -.223517417908D-07  .252420257677D+01 -.175088644028D-06
     .954219054574D+00  .183625000000D+03  .101649278105D+01 -.777460955798D-08
    -.666099174276D-09  .100000000000D+01  .224500000000D+04  .000000000000D+00
     .240000000000D+01  .000000000000D+00  .558793544769D-08  .900000000000D+02
     .532800000000D+06  .400000000000D+01
22 23  1 21  6  0  0.0  .410338863730D-03  .795807864051D-11  .000000000000D+00
     .770000000000D+02 -.244687500000D+02  .444875673715D-08 -.625531536311D+00
    -.124238431454D-05  .137786878040D-01  .113509595394D-04  .515358878517D+04
     .540000000000D+06 -.150874257088D-06  .522789459571D+00  .173225998878D-06
     .962495516533D+00  .165406250000D+03 -.183259612762D+01 -.802247702551D-08
     .686814322859D-09  .100000000000D+01  .224500000000D+04  .000000000000D+00
     .240000000000D+01  .000000000000D+00 -.791624188423D-08  .770000000000D+02
     .532800000000D+06  .400000000000D+01
11 23  1 21  6  0  0.0 -.837519764900D-04 -.909494701773D-11  .000000000000D+00
     .640000000000D+02  .314375000000D+02  .480770026001D-08 -.109234562913D+01
     .167079269886D-05  .782808405347D-03 -.138953328133D-05  .515369409370D+04
     .540000000000D+06  .204890966415D-07 -.160267701292D+01  .391155481339D-07
     .964391851889D+00  .408906250000D+03 -.270524487137D+01 -.854821321025D-08
     .101789954246D-09  .100000000000D+01  .224500000000D+04  .000000000000D+00
     .240000000000D+01  .000000000000D+00 -.884756445885D-08  .576000000000D+03
     .532800000000D+06  .400000000000D+01
23 23  1 21  6  0  0.0  .314600765705D-05  .125055521494D-11  .000000000000D+00
     .950000000000D+02 -.164437500000D+03  .416481633846D-08  .280909348472D+01
    -.852160155773D-05  .298682739958D-02  .641867518425D-05  .515365137482D+04
     .540000000000D+06 -.745058059692D-07 -.635688017700D+00  .931322574615D-08
     .972201492300D+00  .262312500000D+03 -.312321640709D+01 -.794961684774D-08
    -.273939982128D-09  .100000000000D+01  .224500000000D+04  .000000000000D+00
     .240000000000D+01  .000000000000D+00 -.838190317154D-08  .351000000000D+03
     .532800000000D+06  .400000000000D+01
